<?xml version='1.0' encoding='UTF-8' standalone='yes' ?>
<gpx version="1.1" creator="OsmAnd 5.3.10" xmlns="http://www.topografix.com/GPX/1/1" xmlns:osmand="https://osmand.net/docs/technical/osmand-file-formats/osmand-gpx" xmlns:gpxtpx="https://www8.garmin.com/xmlschemas/TrackPointExtensionv1.xsd" xmlns:xsi="http://www.w3.org/2001/XMLSchema-instance" xsi:schemaLocation="http://www.topografix.com/GPX/1/1 https://www.topografix.com/GPX/1/1/gpx.xsd">
  <metadata>
    <name>Sate bulayak Mak aton</name>
    <time>2026-07-26T02:07:18Z</time>
  </metadata>
  <trk>
    <trkseg>
      <trkpt lat="-8.5391441" lon="116.2472346">
        <ele>297.9</ele>
        <time>2026-07-26T01:41:37Z</time>
        <hdop>5.6</hdop>
        <extensions>
          <osmand:speed>0.1</osmand:speed>
        </extensions>
      </trkpt>
      <trkpt lat="-8.5391451" lon="116.2472438">
        <ele>297.9</ele>
        <time>2026-07-26T01:41:43Z</time>
        <hdop>4.7</hdop>
        <extensions>
          <osmand:speed>0.3</osmand:speed>
        </extensions>
      </trkpt>
      <trkpt lat="-8.539153" lon="116.2472526">
        <ele>297.9</ele>
        <time>2026-07-26T01:41:48Z</time>
        <hdop>4.7</hdop>
        <extensions>
          <osmand:speed>0.4</osmand:speed>
        </extensions>
      </trkpt>
      <trkpt lat="-8.5391733" lon="116.2472746">
        <ele>297.8</ele>
        <time>2026-07-26T01:41:53Z</time>
        <hdop>5</hdop>
        <extensions>
          <osmand:speed>0.3</osmand:speed>
        </extensions>
      </trkpt>
      <trkpt lat="-8.5392381" lon="116.2473117">
        <ele>297.9</ele>
        <time>2026-07-26T01:41:58Z</time>
        <hdop>5.7</hdop>
        <extensions>
          <osmand:speed>1.2</osmand:speed>
        </extensions>
      </trkpt>
      <trkpt lat="-8.5393007" lon="116.2473463">
        <ele>297.9</ele>
        <time>2026-07-26T01:42:04Z</time>
        <hdop>5.4</hdop>
        <extensions>
          <osmand:speed>1.3</osmand:speed>
        </extensions>
      </trkpt>
      <trkpt lat="-8.539319" lon="116.2473657">
        <ele>301.9</ele>
        <time>2026-07-26T01:42:09Z</time>
        <hdop>5</hdop>
        <extensions>
          <osmand:speed>0.7</osmand:speed>
        </extensions>
      </trkpt>
      <trkpt lat="-8.5393476" lon="116.2473685">
        <ele>301.9</ele>
        <time>2026-07-26T01:42:14Z</time>
        <hdop>5</hdop>
        <extensions>
          <osmand:speed>0.8</osmand:speed>
        </extensions>
      </trkpt>
      <trkpt lat="-8.5393814" lon="116.2473607">
        <ele>301.9</ele>
        <time>2026-07-26T01:42:19Z</time>
        <hdop>5.4</hdop>
        <extensions>
          <osmand:speed>0.8</osmand:speed>
        </extensions>
      </trkpt>
      <trkpt lat="-8.5394176" lon="116.2473651">
        <ele>301.9</ele>
        <time>2026-07-26T01:42:25Z</time>
        <hdop>5.4</hdop>
        <extensions>
          <osmand:speed>0.8</osmand:speed>
        </extensions>
      </trkpt>
      <trkpt lat="-8.539439" lon="116.2473628">
        <ele>301.9</ele>
        <time>2026-07-26T01:42:31Z</time>
        <hdop>4.8</hdop>
        <extensions>
          <osmand:speed>0.3</osmand:speed>
        </extensions>
      </trkpt>
    </trkseg>
    <trkseg>
      <trkpt lat="-8.5401644" lon="116.2473593">
        <ele>318.3</ele>
        <time>2026-07-26T02:06:50Z</time>
        <hdop>6</hdop>
      </trkpt>
      <trkpt lat="-8.540144" lon="116.2473258">
        <ele>304.8</ele>
        <time>2026-07-26T02:06:55Z</time>
        <hdop>3.9</hdop>
        <extensions>
          <osmand:speed>2.6</osmand:speed>
        </extensions>
      </trkpt>
      <trkpt lat="-8.5402431" lon="116.2472107">
        <ele>304.8</ele>
        <time>2026-07-26T02:07:01Z</time>
        <hdop>3.8</hdop>
        <extensions>
          <osmand:speed>2.6</osmand:speed>
        </extensions>
      </trkpt>
      <trkpt lat="-8.540373" lon="116.2470733">
        <ele>304.8</ele>
        <time>2026-07-26T02:07:06Z</time>
        <hdop>3.8</hdop>
        <extensions>
          <osmand:speed>4.7</osmand:speed>
        </extensions>
      </trkpt>
      <trkpt lat="-8.5405415" lon="116.2468916">
        <ele>304.8</ele>
        <time>2026-07-26T02:07:12Z</time>
        <hdop>3.8</hdop>
        <extensions>
          <osmand:speed>3.9</osmand:speed>
        </extensions>
      </trkpt>
      <trkpt lat="-8.5406401" lon="116.2467677">
        <ele>304.8</ele>
        <time>2026-07-26T02:07:18Z</time>
        <hdop>3.8</hdop>
        <extensions>
          <osmand:speed>1.6</osmand:speed>
        </extensions>
      </trkpt>
    </trkseg>
  </trk>
  <extensions>
    <osmand:show_arrows>false</osmand:show_arrows>
    <osmand:show_start_finish>true</osmand:show_start_finish>
    <osmand:split_interval>0.0</osmand:split_interval>
    <osmand:split_type>no_split</osmand:split_type>
    <osmand:line_3d_visualization_by_type>none</osmand:line_3d_visualization_by_type>
    <osmand:line_3d_visualization_wall_color_type>none</osmand:line_3d_visualization_wall_color_type>
    <osmand:line_3d_visualization_position_type>top</osmand:line_3d_visualization_position_type>
    <osmand:vertical_exaggeration_scale>1.0</osmand:vertical_exaggeration_scale>
    <osmand:elevation_meters>1000.0</osmand:elevation_meters>
    <osmand:width></osmand:width>
    <osmand:coloring_type>solid</osmand:coloring_type>
  </extensions>
</gpx>