<?xml version='1.0' encoding='UTF-8' standalone='yes' ?>
<gpx version="1.1" creator="OsmAnd 5.3.10" xmlns="http://www.topografix.com/GPX/1/1" xmlns:osmand="https://osmand.net/docs/technical/osmand-file-formats/osmand-gpx" xmlns:gpxtpx="https://www8.garmin.com/xmlschemas/TrackPointExtensionv1.xsd" xmlns:xsi="http://www.w3.org/2001/XMLSchema-instance" xsi:schemaLocation="http://www.topografix.com/GPX/1/1 https://www.topografix.com/GPX/1/1/gpx.xsd">
  <metadata>
    <name>undak telu</name>
  </metadata>
  <trk>
    <trkseg>
      <trkpt lat="-8.5416222" lon="116.2442364">
        <ele>288.5</ele>
        <time>2026-07-29T01:14:12Z</time>
        <hdop>3.7</hdop>
        <extensions>
          <osmand:speed>0.1</osmand:speed>
        </extensions>
      </trkpt>
      <trkpt lat="-8.5416294" lon="116.2442385">
        <ele>288.5</ele>
        <time>2026-07-29T01:14:17Z</time>
        <hdop>3.7</hdop>
        <extensions>
          <osmand:speed>0.1</osmand:speed>
        </extensions>
      </trkpt>
      <trkpt lat="-8.5416286" lon="116.244241">
        <ele>288.5</ele>
        <time>2026-07-29T01:14:22Z</time>
        <hdop>3.6</hdop>
        <extensions>
          <osmand:speed>0.1</osmand:speed>
        </extensions>
      </trkpt>
      <trkpt lat="-8.5416186" lon="116.2442432">
        <ele>288.9</ele>
        <time>2026-07-29T01:14:27Z</time>
        <hdop>3.7</hdop>
        <extensions>
          <osmand:speed>0.1</osmand:speed>
        </extensions>
      </trkpt>
      <trkpt lat="-8.5416027" lon="116.2442449">
        <ele>288.9</ele>
        <time>2026-07-29T01:14:32Z</time>
        <hdop>3.6</hdop>
        <extensions>
          <osmand:speed>0.2</osmand:speed>
        </extensions>
      </trkpt>
      <trkpt lat="-8.5413874" lon="116.2442685">
        <ele>288.5</ele>
        <time>2026-07-29T01:14:38Z</time>
        <hdop>3.7</hdop>
        <extensions>
          <osmand:speed>5.9</osmand:speed>
        </extensions>
      </trkpt>
      <trkpt lat="-8.5410157" lon="116.2443645">
        <ele>288.5</ele>
        <time>2026-07-29T01:14:44Z</time>
        <hdop>3.9</hdop>
        <extensions>
          <osmand:speed>7</osmand:speed>
        </extensions>
      </trkpt>
      <trkpt lat="-8.5406593" lon="116.2445265">
        <ele>288.5</ele>
        <time>2026-07-29T01:14:50Z</time>
        <hdop>3.3</hdop>
        <extensions>
          <osmand:speed>7.1</osmand:speed>
        </extensions>
      </trkpt>
      <trkpt lat="-8.540405" lon="116.2447469">
        <ele>292.8</ele>
        <time>2026-07-29T01:14:55Z</time>
        <hdop>8.8</hdop>
        <extensions>
          <osmand:speed>8.3</osmand:speed>
        </extensions>
      </trkpt>
      <trkpt lat="-8.5401239" lon="116.2451522">
        <ele>292.8</ele>
        <time>2026-07-29T01:15:01Z</time>
        <hdop>4</hdop>
        <extensions>
          <osmand:speed>9</osmand:speed>
        </extensions>
      </trkpt>
      <trkpt lat="-8.5399073" lon="116.2454641">
        <ele>292.8</ele>
        <time>2026-07-29T01:15:06Z</time>
        <hdop>4.2</hdop>
        <extensions>
          <osmand:speed>8.2</osmand:speed>
        </extensions>
      </trkpt>
      <trkpt lat="-8.5399759" lon="116.2458754">
        <ele>292.8</ele>
        <time>2026-07-29T01:15:12Z</time>
        <hdop>3.8</hdop>
        <extensions>
          <osmand:speed>8.4</osmand:speed>
        </extensions>
      </trkpt>
      <trkpt lat="-8.5402839" lon="116.2462519">
        <ele>294.6</ele>
        <time>2026-07-29T01:15:18Z</time>
        <hdop>3.8</hdop>
        <extensions>
          <osmand:speed>8.8</osmand:speed>
        </extensions>
      </trkpt>
      <trkpt lat="-8.5405561" lon="116.2466355">
        <ele>294.6</ele>
        <time>2026-07-29T01:15:24Z</time>
        <hdop>3.9</hdop>
        <extensions>
          <osmand:speed>8.4</osmand:speed>
        </extensions>
      </trkpt>
      <trkpt lat="-8.5407863" lon="116.2469644">
        <ele>294.6</ele>
        <time>2026-07-29T01:15:30Z</time>
        <hdop>3.6</hdop>
        <extensions>
          <osmand:speed>6</osmand:speed>
        </extensions>
      </trkpt>
      <trkpt lat="-8.5410947" lon="116.2472702">
        <ele>294.6</ele>
        <time>2026-07-29T01:15:36Z</time>
        <hdop>3.9</hdop>
        <extensions>
          <osmand:speed>8.4</osmand:speed>
        </extensions>
      </trkpt>
      <trkpt lat="-8.5413678" lon="116.2476043">
        <ele>304.5</ele>
        <time>2026-07-29T01:15:41Z</time>
        <hdop>7.7</hdop>
        <extensions>
          <osmand:speed>9.4</osmand:speed>
        </extensions>
      </trkpt>
      <trkpt lat="-8.5415029" lon="116.2480963">
        <ele>304.5</ele>
        <time>2026-07-29T01:15:47Z</time>
        <hdop>3.9</hdop>
        <extensions>
          <osmand:speed>9.9</osmand:speed>
        </extensions>
      </trkpt>
      <trkpt lat="-8.5412903" lon="116.2485863">
        <ele>304.5</ele>
        <time>2026-07-29T01:15:53Z</time>
        <hdop>4.6</hdop>
        <extensions>
          <osmand:speed>10</osmand:speed>
        </extensions>
      </trkpt>
      <trkpt lat="-8.5411926" lon="116.2490561">
        <ele>322</ele>
        <time>2026-07-29T01:15:59Z</time>
        <hdop>4.1</hdop>
        <extensions>
          <osmand:speed>9.3</osmand:speed>
        </extensions>
      </trkpt>
      <trkpt lat="-8.5412178" lon="116.2495521">
        <ele>325</ele>
        <time>2026-07-29T01:16:05Z</time>
        <hdop>4.1</hdop>
        <extensions>
          <osmand:speed>9.2</osmand:speed>
        </extensions>
      </trkpt>
      <trkpt lat="-8.5411806" lon="116.2500595">
        <ele>328</ele>
        <time>2026-07-29T01:16:11Z</time>
        <hdop>3.9</hdop>
        <extensions>
          <osmand:speed>9.5</osmand:speed>
        </extensions>
      </trkpt>
      <trkpt lat="-8.5409766" lon="116.2504344">
        <ele>331</ele>
        <time>2026-07-29T01:16:16Z</time>
        <hdop>3.8</hdop>
        <extensions>
          <osmand:speed>9.4</osmand:speed>
        </extensions>
      </trkpt>
      <trkpt lat="-8.5407282" lon="116.2508527">
        <ele>304.5</ele>
        <time>2026-07-29T01:16:22Z</time>
        <hdop>14.5</hdop>
        <extensions>
          <osmand:speed>9.2</osmand:speed>
        </extensions>
      </trkpt>
      <trkpt lat="-8.5408567" lon="116.2513681">
        <ele>336</ele>
        <time>2026-07-29T01:16:28Z</time>
        <hdop>4.8</hdop>
        <extensions>
          <osmand:speed>9.9</osmand:speed>
        </extensions>
      </trkpt>
      <trkpt lat="-8.5408454" lon="116.251829">
        <ele>340</ele>
        <time>2026-07-29T01:16:33Z</time>
        <hdop>4</hdop>
        <extensions>
          <osmand:speed>9.8</osmand:speed>
        </extensions>
      </trkpt>
      <trkpt lat="-8.540668" lon="116.2523244">
        <ele>343</ele>
        <time>2026-07-29T01:16:39Z</time>
        <hdop>3.9</hdop>
        <extensions>
          <osmand:speed>9.2</osmand:speed>
        </extensions>
      </trkpt>
      <trkpt lat="-8.5404244" lon="116.2526743">
        <ele>344</ele>
        <time>2026-07-29T01:16:45Z</time>
        <hdop>11.1</hdop>
        <extensions>
          <osmand:speed>7.9</osmand:speed>
        </extensions>
      </trkpt>
      <trkpt lat="-8.5402578" lon="116.2530712">
        <ele>348</ele>
        <time>2026-07-29T01:16:51Z</time>
        <hdop>3.8</hdop>
        <extensions>
          <osmand:speed>7.2</osmand:speed>
        </extensions>
      </trkpt>
      <trkpt lat="-8.540157" lon="116.2532932">
        <ele>350</ele>
        <time>2026-07-29T01:16:57Z</time>
        <hdop>3.5</hdop>
        <extensions>
          <osmand:speed>2.2</osmand:speed>
        </extensions>
      </trkpt>
      <trkpt lat="-8.5400297" lon="116.2533077">
        <ele>351</ele>
        <time>2026-07-29T01:17:02Z</time>
        <hdop>3.7</hdop>
        <extensions>
          <osmand:speed>2.5</osmand:speed>
        </extensions>
      </trkpt>
      <trkpt lat="-8.5398741" lon="116.2532461">
        <ele>352</ele>
        <time>2026-07-29T01:17:08Z</time>
        <hdop>4.8</hdop>
        <extensions>
          <osmand:speed>3</osmand:speed>
        </extensions>
      </trkpt>
      <trkpt lat="-8.5397582" lon="116.2531022">
        <ele>352</ele>
        <time>2026-07-29T01:17:14Z</time>
        <hdop>4.3</hdop>
        <extensions>
          <osmand:speed>3.1</osmand:speed>
        </extensions>
      </trkpt>
      <trkpt lat="-8.5396492" lon="116.2529647">
        <ele>353</ele>
        <time>2026-07-29T01:17:19Z</time>
        <hdop>5</hdop>
        <extensions>
          <osmand:speed>3.6</osmand:speed>
        </extensions>
      </trkpt>
      <trkpt lat="-8.5395717" lon="116.2528169">
        <ele>354</ele>
        <time>2026-07-29T01:17:25Z</time>
        <hdop>6</hdop>
        <extensions>
          <osmand:speed>2.7</osmand:speed>
        </extensions>
      </trkpt>
      <trkpt lat="-8.5395494" lon="116.2526885">
        <ele>354</ele>
        <time>2026-07-29T01:17:31Z</time>
        <hdop>5</hdop>
        <extensions>
          <osmand:speed>2</osmand:speed>
        </extensions>
      </trkpt>
      <trkpt lat="-8.5395243" lon="116.2525562">
        <ele>353</ele>
        <time>2026-07-29T01:17:37Z</time>
        <hdop>4.1</hdop>
        <extensions>
          <osmand:speed>2.3</osmand:speed>
        </extensions>
      </trkpt>
      <trkpt lat="-8.5395098" lon="116.2523746">
        <ele>355</ele>
        <time>2026-07-29T01:17:43Z</time>
        <hdop>5.3</hdop>
        <extensions>
          <osmand:speed>3.4</osmand:speed>
        </extensions>
      </trkpt>
      <trkpt lat="-8.5394767" lon="116.2521566">
        <ele>355</ele>
        <time>2026-07-29T01:17:49Z</time>
        <hdop>4.9</hdop>
        <extensions>
          <osmand:speed>3.9</osmand:speed>
        </extensions>
      </trkpt>
      <trkpt lat="-8.5394401" lon="116.2519368">
        <ele>356</ele>
        <time>2026-07-29T01:17:55Z</time>
        <hdop>4.2</hdop>
        <extensions>
          <osmand:speed>3.6</osmand:speed>
        </extensions>
      </trkpt>
      <trkpt lat="-8.5393504" lon="116.2518184">
        <ele>355</ele>
        <time>2026-07-29T01:18:01Z</time>
        <hdop>4.8</hdop>
        <extensions>
          <osmand:speed>3.1</osmand:speed>
        </extensions>
      </trkpt>
      <trkpt lat="-8.5391769" lon="116.2518332">
        <ele>354</ele>
        <time>2026-07-29T01:18:07Z</time>
        <hdop>5.6</hdop>
        <extensions>
          <osmand:speed>2.4</osmand:speed>
        </extensions>
      </trkpt>
      <trkpt lat="-8.5390244" lon="116.2517825">
        <ele>354</ele>
        <time>2026-07-29T01:18:13Z</time>
        <hdop>5.1</hdop>
        <extensions>
          <osmand:speed>3</osmand:speed>
        </extensions>
      </trkpt>
      <trkpt lat="-8.5388457" lon="116.2517037">
        <ele>349</ele>
        <time>2026-07-29T01:18:19Z</time>
        <hdop>5.7</hdop>
        <extensions>
          <osmand:speed>3</osmand:speed>
        </extensions>
      </trkpt>
      <trkpt lat="-8.5387553" lon="116.2516617">
        <ele>348</ele>
        <time>2026-07-29T01:18:25Z</time>
        <hdop>4.8</hdop>
        <extensions>
          <osmand:speed>1.6</osmand:speed>
        </extensions>
      </trkpt>
      <trkpt lat="-8.5385938" lon="116.251604">
        <ele>346</ele>
        <time>2026-07-29T01:18:31Z</time>
        <hdop>5.6</hdop>
        <extensions>
          <osmand:speed>3.3</osmand:speed>
        </extensions>
      </trkpt>
      <trkpt lat="-8.5384187" lon="116.2515491">
        <ele>343</ele>
        <time>2026-07-29T01:18:37Z</time>
        <hdop>4.8</hdop>
        <extensions>
          <osmand:speed>3.5</osmand:speed>
        </extensions>
      </trkpt>
      <trkpt lat="-8.5382778" lon="116.2514845">
        <ele>342</ele>
        <time>2026-07-29T01:18:43Z</time>
        <hdop>4.6</hdop>
        <extensions>
          <osmand:speed>2.8</osmand:speed>
        </extensions>
      </trkpt>
      <trkpt lat="-8.5381587" lon="116.2514094">
        <ele>342</ele>
        <time>2026-07-29T01:18:49Z</time>
        <hdop>4.5</hdop>
        <extensions>
          <osmand:speed>2.7</osmand:speed>
        </extensions>
      </trkpt>
      <trkpt lat="-8.5379989" lon="116.2513309">
        <ele>340</ele>
        <time>2026-07-29T01:18:55Z</time>
        <hdop>4.7</hdop>
        <extensions>
          <osmand:speed>3.2</osmand:speed>
        </extensions>
      </trkpt>
      <trkpt lat="-8.5378553" lon="116.2512374">
        <ele>337</ele>
        <time>2026-07-29T01:19:01Z</time>
        <hdop>4.6</hdop>
        <extensions>
          <osmand:speed>2.6</osmand:speed>
        </extensions>
      </trkpt>
      <trkpt lat="-8.5377333" lon="116.2512297">
        <ele>334</ele>
        <time>2026-07-29T01:19:07Z</time>
        <hdop>4.6</hdop>
        <extensions>
          <osmand:speed>1.2</osmand:speed>
        </extensions>
      </trkpt>
      <trkpt lat="-8.5376626" lon="116.251167">
        <ele>332</ele>
        <time>2026-07-29T01:19:13Z</time>
        <hdop>4.8</hdop>
        <extensions>
          <osmand:speed>0.7</osmand:speed>
        </extensions>
      </trkpt>
      <trkpt lat="-8.537692" lon="116.2511264">
        <ele>330</ele>
        <time>2026-07-29T01:19:18Z</time>
        <hdop>5.4</hdop>
        <extensions>
          <osmand:speed>1</osmand:speed>
        </extensions>
      </trkpt>
      <trkpt lat="-8.5376904" lon="116.2510447">
        <ele>329</ele>
        <time>2026-07-29T01:19:24Z</time>
        <hdop>6</hdop>
        <extensions>
          <osmand:speed>1.3</osmand:speed>
        </extensions>
      </trkpt>
      <trkpt lat="-8.5376873" lon="116.2509717">
        <ele>325</ele>
        <time>2026-07-29T01:19:30Z</time>
        <hdop>6.2</hdop>
        <extensions>
          <osmand:speed>1.2</osmand:speed>
        </extensions>
      </trkpt>
      <trkpt lat="-8.537727" lon="116.2509002">
        <ele>320</ele>
        <time>2026-07-29T01:19:36Z</time>
        <hdop>5.9</hdop>
        <extensions>
          <osmand:speed>1</osmand:speed>
        </extensions>
      </trkpt>
      <trkpt lat="-8.5377344" lon="116.2508318">
        <ele>321</ele>
        <time>2026-07-29T01:19:42Z</time>
        <hdop>6.7</hdop>
        <extensions>
          <osmand:speed>1</osmand:speed>
        </extensions>
      </trkpt>
      <trkpt lat="-8.5377579" lon="116.2507767">
        <ele>320</ele>
        <time>2026-07-29T01:19:47Z</time>
        <hdop>4.7</hdop>
        <extensions>
          <osmand:speed>1.3</osmand:speed>
        </extensions>
      </trkpt>
      <trkpt lat="-8.5378071" lon="116.2507245">
        <ele>317</ele>
        <time>2026-07-29T01:19:53Z</time>
        <hdop>3.9</hdop>
        <extensions>
          <osmand:speed>1.2</osmand:speed>
        </extensions>
      </trkpt>
      <trkpt lat="-8.5378213" lon="116.2506993">
        <ele>317</ele>
        <time>2026-07-29T01:19:58Z</time>
        <hdop>3.3</hdop>
        <extensions>
          <osmand:speed>0.6</osmand:speed>
        </extensions>
      </trkpt>
      <trkpt lat="-8.5378297" lon="116.2506865">
        <ele>317</ele>
        <time>2026-07-29T01:20:03Z</time>
        <hdop>3</hdop>
        <extensions>
          <osmand:speed>0.3</osmand:speed>
        </extensions>
      </trkpt>
      <trkpt lat="-8.5378361" lon="116.250662">
        <ele>317</ele>
        <time>2026-07-29T01:20:08Z</time>
        <hdop>3</hdop>
        <extensions>
          <osmand:speed>0.6</osmand:speed>
        </extensions>
      </trkpt>
      <trkpt lat="-8.5378822" lon="116.2506181">
        <ele>318</ele>
        <time>2026-07-29T01:20:13Z</time>
        <hdop>3</hdop>
        <extensions>
          <osmand:speed>1.2</osmand:speed>
        </extensions>
      </trkpt>
      <trkpt lat="-8.5379025" lon="116.2505622">
        <ele>319</ele>
        <time>2026-07-29T01:20:19Z</time>
        <hdop>3.3</hdop>
        <extensions>
          <osmand:speed>0.9</osmand:speed>
        </extensions>
      </trkpt>
      <trkpt lat="-8.537902" lon="116.250503">
        <ele>318</ele>
        <time>2026-07-29T01:20:24Z</time>
        <hdop>3.5</hdop>
        <extensions>
          <osmand:speed>1.1</osmand:speed>
        </extensions>
      </trkpt>
      <trkpt lat="-8.5379261" lon="116.2504339">
        <ele>317</ele>
        <time>2026-07-29T01:20:30Z</time>
        <hdop>3.3</hdop>
        <extensions>
          <osmand:speed>1.1</osmand:speed>
        </extensions>
      </trkpt>
      <trkpt lat="-8.5379442" lon="116.2503713">
        <ele>317</ele>
        <time>2026-07-29T01:20:35Z</time>
        <hdop>3.3</hdop>
        <extensions>
          <osmand:speed>1.2</osmand:speed>
        </extensions>
      </trkpt>
      <trkpt lat="-8.5379782" lon="116.2503116">
        <ele>316</ele>
        <time>2026-07-29T01:20:40Z</time>
        <hdop>3.1</hdop>
        <extensions>
          <osmand:speed>1.2</osmand:speed>
        </extensions>
      </trkpt>
      <trkpt lat="-8.5379895" lon="116.2502529">
        <ele>317</ele>
        <time>2026-07-29T01:20:45Z</time>
        <hdop>3.5</hdop>
        <extensions>
          <osmand:speed>1.1</osmand:speed>
        </extensions>
      </trkpt>
      <trkpt lat="-8.5380006" lon="116.2502028">
        <ele>317</ele>
        <time>2026-07-29T01:20:50Z</time>
        <hdop>3.4</hdop>
        <extensions>
          <osmand:speed>1.1</osmand:speed>
        </extensions>
      </trkpt>
      <trkpt lat="-8.5380334" lon="116.2501551">
        <ele>319</ele>
        <time>2026-07-29T01:20:55Z</time>
        <hdop>3.5</hdop>
        <extensions>
          <osmand:speed>1.1</osmand:speed>
        </extensions>
      </trkpt>
      <trkpt lat="-8.5380625" lon="116.2501025">
        <ele>319</ele>
        <time>2026-07-29T01:21:01Z</time>
        <hdop>3.6</hdop>
        <extensions>
          <osmand:speed>1.1</osmand:speed>
        </extensions>
      </trkpt>
      <trkpt lat="-8.5380916" lon="116.2500355">
        <ele>318</ele>
        <time>2026-07-29T01:21:06Z</time>
        <hdop>3.7</hdop>
        <extensions>
          <osmand:speed>1.1</osmand:speed>
        </extensions>
      </trkpt>
      <trkpt lat="-8.5381292" lon="116.2499871">
        <ele>317</ele>
        <time>2026-07-29T01:21:11Z</time>
        <hdop>3.6</hdop>
        <extensions>
          <osmand:speed>1.2</osmand:speed>
        </extensions>
      </trkpt>
      <trkpt lat="-8.5381777" lon="116.2499934">
        <ele>316</ele>
        <time>2026-07-29T01:21:16Z</time>
        <hdop>3.3</hdop>
        <extensions>
          <osmand:speed>0.9</osmand:speed>
        </extensions>
      </trkpt>
      <trkpt lat="-8.5382322" lon="116.2499927">
        <ele>316</ele>
        <time>2026-07-29T01:21:21Z</time>
        <hdop>3.6</hdop>
        <extensions>
          <osmand:speed>1.1</osmand:speed>
        </extensions>
      </trkpt>
      <trkpt lat="-8.5382344" lon="116.2500228">
        <ele>316</ele>
        <time>2026-07-29T01:21:27Z</time>
        <hdop>3.6</hdop>
        <extensions>
          <osmand:speed>0.8</osmand:speed>
        </extensions>
      </trkpt>
      <trkpt lat="-8.5382395" lon="116.2500678">
        <ele>317</ele>
        <time>2026-07-29T01:21:32Z</time>
        <hdop>4</hdop>
        <extensions>
          <osmand:speed>0.9</osmand:speed>
        </extensions>
      </trkpt>
      <trkpt lat="-8.5382597" lon="116.2501033">
        <ele>316</ele>
        <time>2026-07-29T01:21:37Z</time>
        <hdop>3.8</hdop>
        <extensions>
          <osmand:speed>0.8</osmand:speed>
        </extensions>
      </trkpt>
      <trkpt lat="-8.5382914" lon="116.2500954">
        <ele>315</ele>
        <time>2026-07-29T01:21:42Z</time>
        <hdop>3.4</hdop>
        <extensions>
          <osmand:speed>0.8</osmand:speed>
        </extensions>
      </trkpt>
      <trkpt lat="-8.5382981" lon="116.2501089">
        <ele>314</ele>
        <time>2026-07-29T01:21:48Z</time>
        <hdop>3.7</hdop>
        <extensions>
          <osmand:speed>0.3</osmand:speed>
        </extensions>
      </trkpt>
      <trkpt lat="-8.5383155" lon="116.2501505">
        <ele>316</ele>
        <time>2026-07-29T01:21:54Z</time>
        <hdop>4.2</hdop>
        <extensions>
          <osmand:speed>0.7</osmand:speed>
        </extensions>
      </trkpt>
    </trkseg>
  </trk>
  <extensions>
    <osmand:show_arrows>false</osmand:show_arrows>
    <osmand:show_start_finish>true</osmand:show_start_finish>
    <osmand:split_interval>0.0</osmand:split_interval>
    <osmand:split_type>no_split</osmand:split_type>
    <osmand:line_3d_visualization_by_type>none</osmand:line_3d_visualization_by_type>
    <osmand:line_3d_visualization_wall_color_type>none</osmand:line_3d_visualization_wall_color_type>
    <osmand:line_3d_visualization_position_type>top</osmand:line_3d_visualization_position_type>
    <osmand:vertical_exaggeration_scale>1.0</osmand:vertical_exaggeration_scale>
    <osmand:elevation_meters>1000.0</osmand:elevation_meters>
    <osmand:color>#00000000</osmand:color>
    <osmand:width></osmand:width>
    <osmand:coloring_type>solid</osmand:coloring_type>
  </extensions>
</gpx>