{
  "type": "FeatureCollection",
  "features": [
    {
      "type": "Feature",
      "properties": {
        "nama": "Jalur Menuju Undak Telu (via Tibu Jam & Tibu Pancor)",
        "deskripsi": "Rute dari Kantor Desa menuju Undak Telu (tangga air), melewati kawasan Tibu Jam dan Tibu Pancor. Hasil rekaman GPS lapangan.",
        "jenis": "jalur_tracking"
      },
      "geometry": {
        "type": "MultiLineString",
        "coordinates": [
          [
            [
              116.2442364,
              -8.5416222
            ],
            [
              116.2442385,
              -8.5416294
            ],
            [
              116.244241,
              -8.5416286
            ],
            [
              116.2442432,
              -8.5416186
            ],
            [
              116.2442449,
              -8.5416027
            ],
            [
              116.2442685,
              -8.5413874
            ],
            [
              116.2443645,
              -8.5410157
            ],
            [
              116.2445265,
              -8.5406593
            ],
            [
              116.2447469,
              -8.540405
            ],
            [
              116.2451522,
              -8.5401239
            ],
            [
              116.2454641,
              -8.5399073
            ],
            [
              116.2458754,
              -8.5399759
            ],
            [
              116.2462519,
              -8.5402839
            ],
            [
              116.2466355,
              -8.5405561
            ],
            [
              116.2469644,
              -8.5407863
            ],
            [
              116.2472702,
              -8.5410947
            ],
            [
              116.2476043,
              -8.5413678
            ],
            [
              116.2480963,
              -8.5415029
            ],
            [
              116.2485863,
              -8.5412903
            ],
            [
              116.2490561,
              -8.5411926
            ],
            [
              116.2495521,
              -8.5412178
            ],
            [
              116.2500595,
              -8.5411806
            ],
            [
              116.2504344,
              -8.5409766
            ],
            [
              116.2508527,
              -8.5407282
            ],
            [
              116.2513681,
              -8.5408567
            ],
            [
              116.251829,
              -8.5408454
            ],
            [
              116.2523244,
              -8.540668
            ],
            [
              116.2526743,
              -8.5404244
            ],
            [
              116.2530712,
              -8.5402578
            ],
            [
              116.2532932,
              -8.540157
            ],
            [
              116.2533077,
              -8.5400297
            ],
            [
              116.2532461,
              -8.5398741
            ],
            [
              116.2531022,
              -8.5397582
            ],
            [
              116.2529647,
              -8.5396492
            ],
            [
              116.2528169,
              -8.5395717
            ],
            [
              116.2526885,
              -8.5395494
            ],
            [
              116.2525562,
              -8.5395243
            ],
            [
              116.2523746,
              -8.5395098
            ],
            [
              116.2521566,
              -8.5394767
            ],
            [
              116.2519368,
              -8.5394401
            ],
            [
              116.2518184,
              -8.5393504
            ],
            [
              116.2518332,
              -8.5391769
            ],
            [
              116.2517825,
              -8.5390244
            ],
            [
              116.2517037,
              -8.5388457
            ],
            [
              116.2516617,
              -8.5387553
            ],
            [
              116.251604,
              -8.5385938
            ],
            [
              116.2515491,
              -8.5384187
            ],
            [
              116.2514845,
              -8.5382778
            ],
            [
              116.2514094,
              -8.5381587
            ],
            [
              116.2513309,
              -8.5379989
            ],
            [
              116.2512374,
              -8.5378553
            ],
            [
              116.2512297,
              -8.5377333
            ],
            [
              116.251167,
              -8.5376626
            ],
            [
              116.2511264,
              -8.537692
            ],
            [
              116.2510447,
              -8.5376904
            ],
            [
              116.2509717,
              -8.5376873
            ],
            [
              116.2509002,
              -8.537727
            ],
            [
              116.2508318,
              -8.5377344
            ],
            [
              116.2507767,
              -8.5377579
            ],
            [
              116.2507245,
              -8.5378071
            ],
            [
              116.2506993,
              -8.5378213
            ],
            [
              116.2506865,
              -8.5378297
            ],
            [
              116.250662,
              -8.5378361
            ],
            [
              116.2506181,
              -8.5378822
            ],
            [
              116.2505622,
              -8.5379025
            ],
            [
              116.250503,
              -8.537902
            ],
            [
              116.2504339,
              -8.5379261
            ],
            [
              116.2503713,
              -8.5379442
            ],
            [
              116.2503116,
              -8.5379782
            ],
            [
              116.2502529,
              -8.5379895
            ],
            [
              116.2502028,
              -8.5380006
            ],
            [
              116.2501551,
              -8.5380334
            ],
            [
              116.2501025,
              -8.5380625
            ],
            [
              116.2500355,
              -8.5380916
            ],
            [
              116.2499871,
              -8.5381292
            ],
            [
              116.2499934,
              -8.5381777
            ],
            [
              116.2499927,
              -8.5382322
            ],
            [
              116.2500228,
              -8.5382344
            ],
            [
              116.2500678,
              -8.5382395
            ],
            [
              116.2501033,
              -8.5382597
            ],
            [
              116.2500954,
              -8.5382914
            ],
            [
              116.2501089,
              -8.5382981
            ],
            [
              116.2501505,
              -8.5383155
            ]
          ]
        ]
      }
    }
  ]
}