{
  "type": "FeatureCollection",
  "features": [
    {
      "type": "Feature",
      "properties": {
        "nama": "Jalur Tracking Air Terjun Tibu Sendalem",
        "deskripsi": "Jalur trekking menuju Air Terjun Tibu Sendalem melewati kawasan Hutan Sesaot, dikelola masyarakat Desa Sesaot. Hasil rekaman GPS lapangan (~1 jam 24 menit).",
        "jenis": "jalur_tracking"
      },
      "geometry": {
        "type": "MultiLineString",
        "coordinates": [
          [
            [
              116.2453027,
              -8.5409343
            ],
            [
              116.2452388,
              -8.5409258
            ],
            [
              116.2452464,
              -8.5409303
            ],
            [
              116.2452522,
              -8.5409394
            ],
            [
              116.2452537,
              -8.5409437
            ],
            [
              116.2452607,
              -8.540966
            ],
            [
              116.2452602,
              -8.5409812
            ],
            [
              116.2452637,
              -8.5409809
            ],
            [
              116.2452611,
              -8.5409808
            ],
            [
              116.2452674,
              -8.5409471
            ],
            [
              116.2453274,
              -8.5409296
            ],
            [
              116.2453425,
              -8.5409396
            ],
            [
              116.2453444,
              -8.5409452
            ],
            [
              116.2453468,
              -8.5409508
            ],
            [
              116.2453458,
              -8.5409566
            ],
            [
              116.2452378,
              -8.5411906
            ],
            [
              116.2451559,
              -8.5412761
            ],
            [
              116.2450505,
              -8.5411765
            ],
            [
              116.2448864,
              -8.541149
            ],
            [
              116.2447504,
              -8.5411304
            ],
            [
              116.2446167,
              -8.5411007
            ],
            [
              116.2445126,
              -8.5411048
            ],
            [
              116.2444657,
              -8.5410859
            ],
            [
              116.2444582,
              -8.5411017
            ],
            [
              116.244456,
              -8.5411045
            ],
            [
              116.244576,
              -8.5407121
            ],
            [
              116.2448231,
              -8.5404168
            ],
            [
              116.2451351,
              -8.5402076
            ],
            [
              116.2453394,
              -8.5400321
            ],
            [
              116.245305,
              -8.5398159
            ],
            [
              116.2451748,
              -8.5396327
            ],
            [
              116.2450331,
              -8.53954
            ],
            [
              116.2448466,
              -8.5393919
            ],
            [
              116.2445833,
              -8.5392662
            ],
            [
              116.244245,
              -8.5391346
            ],
            [
              116.2439872,
              -8.5389764
            ],
            [
              116.2436424,
              -8.5386207
            ],
            [
              116.2434711,
              -8.5383341
            ],
            [
              116.243457,
              -8.5380901
            ],
            [
              116.2434029,
              -8.5377199
            ],
            [
              116.2433107,
              -8.537314
            ],
            [
              116.2435342,
              -8.5369796
            ],
            [
              116.2437768,
              -8.5366441
            ],
            [
              116.2439981,
              -8.5364663
            ],
            [
              116.2442159,
              -8.5364072
            ],
            [
              116.2443718,
              -8.5361238
            ],
            [
              116.2446077,
              -8.5358299
            ],
            [
              116.2448932,
              -8.5354623
            ],
            [
              116.2450168,
              -8.5350037
            ],
            [
              116.2450055,
              -8.5348236
            ],
            [
              116.2450224,
              -8.5346102
            ],
            [
              116.2450081,
              -8.534407
            ],
            [
              116.2450437,
              -8.5344234
            ],
            [
              116.2450366,
              -8.5342175
            ],
            [
              116.2449824,
              -8.5339579
            ],
            [
              116.2448337,
              -8.5337761
            ],
            [
              116.2446923,
              -8.5335896
            ],
            [
              116.2445105,
              -8.5334503
            ],
            [
              116.2443658,
              -8.5334892
            ],
            [
              116.2441656,
              -8.5335926
            ],
            [
              116.2439394,
              -8.5337462
            ],
            [
              116.2436456,
              -8.5339169
            ],
            [
              116.2433374,
              -8.5340566
            ],
            [
              116.2430549,
              -8.5341409
            ],
            [
              116.2428689,
              -8.5341321
            ],
            [
              116.2425718,
              -8.5341062
            ],
            [
              116.2423192,
              -8.5341294
            ],
            [
              116.2423189,
              -8.5340488
            ],
            [
              116.242337,
              -8.5340587
            ],
            [
              116.2423303,
              -8.5340599
            ],
            [
              116.2423289,
              -8.5340559
            ],
            [
              116.2423289,
              -8.5340551
            ],
            [
              116.2424846,
              -8.5340639
            ],
            [
              116.2428246,
              -8.534137
            ],
            [
              116.2430712,
              -8.5341236
            ],
            [
              116.2435294,
              -8.5340443
            ],
            [
              116.2438118,
              -8.5339389
            ],
            [
              116.244089,
              -8.5337307
            ],
            [
              116.2442589,
              -8.5336575
            ],
            [
              116.2444817,
              -8.5335617
            ],
            [
              116.2445746,
              -8.5334913
            ],
            [
              116.2446057,
              -8.5332993
            ],
            [
              116.2446919,
              -8.5331752
            ],
            [
              116.2447046,
              -8.533082
            ],
            [
              116.2447119,
              -8.5329463
            ],
            [
              116.2447517,
              -8.5328539
            ],
            [
              116.2448332,
              -8.5327956
            ],
            [
              116.2448203,
              -8.5326056
            ],
            [
              116.2448223,
              -8.5324864
            ],
            [
              116.2448114,
              -8.5323328
            ],
            [
              116.2447483,
              -8.5322027
            ],
            [
              116.2447152,
              -8.5321476
            ],
            [
              116.2446507,
              -8.532101
            ],
            [
              116.2446684,
              -8.5320663
            ],
            [
              116.244666,
              -8.5320566
            ],
            [
              116.2446595,
              -8.5319686
            ],
            [
              116.2446196,
              -8.5317831
            ],
            [
              116.2446172,
              -8.5316794
            ],
            [
              116.2446059,
              -8.5315311
            ],
            [
              116.2446552,
              -8.5314332
            ],
            [
              116.2447187,
              -8.5313452
            ],
            [
              116.2447672,
              -8.5312336
            ],
            [
              116.2447457,
              -8.5311122
            ],
            [
              116.2447433,
              -8.5309774
            ],
            [
              116.24477,
              -8.5308022
            ],
            [
              116.2447875,
              -8.5306515
            ],
            [
              116.2448423,
              -8.530479
            ],
            [
              116.2448863,
              -8.5303357
            ],
            [
              116.2449936,
              -8.5302693
            ],
            [
              116.2451038,
              -8.5300683
            ],
            [
              116.2452334,
              -8.5299417
            ],
            [
              116.24528,
              -8.5297395
            ],
            [
              116.245393,
              -8.529622
            ],
            [
              116.2455508,
              -8.5294971
            ],
            [
              116.2456546,
              -8.5293819
            ],
            [
              116.245717,
              -8.5293232
            ],
            [
              116.2458245,
              -8.5292089
            ],
            [
              116.2458744,
              -8.5291076
            ],
            [
              116.2458564,
              -8.5289966
            ],
            [
              116.2459184,
              -8.52885
            ],
            [
              116.2459363,
              -8.5286881
            ],
            [
              116.2461101,
              -8.5285582
            ],
            [
              116.2463207,
              -8.5284327
            ],
            [
              116.2464584,
              -8.5282448
            ],
            [
              116.2469304,
              -8.5274652
            ],
            [
              116.2469378,
              -8.5271962
            ],
            [
              116.2469586,
              -8.5270641
            ],
            [
              116.2470934,
              -8.5266489
            ],
            [
              116.2471051,
              -8.5265887
            ],
            [
              116.2471626,
              -8.5264075
            ],
            [
              116.2471841,
              -8.5262658
            ],
            [
              116.2471472,
              -8.5262058
            ],
            [
              116.2471932,
              -8.5262171
            ],
            [
              116.2471605,
              -8.5262298
            ],
            [
              116.2471622,
              -8.5261675
            ],
            [
              116.2471317,
              -8.5260943
            ],
            [
              116.2469799,
              -8.5260105
            ],
            [
              116.2468666,
              -8.5258446
            ],
            [
              116.2467702,
              -8.5257111
            ],
            [
              116.2467647,
              -8.5256941
            ],
            [
              116.2466956,
              -8.5256296
            ],
            [
              116.2466547,
              -8.5252259
            ],
            [
              116.2465708,
              -8.5250591
            ],
            [
              116.2464749,
              -8.524711
            ],
            [
              116.2463926,
              -8.5245793
            ],
            [
              116.2464041,
              -8.5244271
            ],
            [
              116.2463896,
              -8.524306
            ],
            [
              116.2463553,
              -8.5241419
            ],
            [
              116.2462416,
              -8.5241352
            ],
            [
              116.2461775,
              -8.5239719
            ],
            [
              116.2462093,
              -8.5238557
            ],
            [
              116.2461654,
              -8.5237507
            ],
            [
              116.2461707,
              -8.5235698
            ],
            [
              116.2462368,
              -8.5233039
            ],
            [
              116.2462769,
              -8.5231666
            ],
            [
              116.2463175,
              -8.5230746
            ],
            [
              116.246337,
              -8.5229563
            ],
            [
              116.2463327,
              -8.5228286
            ],
            [
              116.2463504,
              -8.5227168
            ],
            [
              116.2464091,
              -8.5225776
            ],
            [
              116.2464652,
              -8.5224208
            ],
            [
              116.2465145,
              -8.5223692
            ],
            [
              116.2465586,
              -8.5222885
            ],
            [
              116.2465609,
              -8.522239
            ],
            [
              116.2466198,
              -8.5221555
            ],
            [
              116.2466099,
              -8.5220286
            ],
            [
              116.246619,
              -8.5218867
            ],
            [
              116.2466265,
              -8.5217197
            ],
            [
              116.2466028,
              -8.5215694
            ],
            [
              116.2464423,
              -8.5214673
            ],
            [
              116.2463794,
              -8.5213748
            ],
            [
              116.246344,
              -8.5212563
            ],
            [
              116.246311,
              -8.5211125
            ],
            [
              116.2462423,
              -8.5210461
            ],
            [
              116.2461831,
              -8.5209372
            ],
            [
              116.2463201,
              -8.5207553
            ],
            [
              116.2463109,
              -8.5205162
            ],
            [
              116.2462589,
              -8.5204016
            ],
            [
              116.2462771,
              -8.520336
            ],
            [
              116.2464073,
              -8.5202421
            ],
            [
              116.24646,
              -8.5200605
            ],
            [
              116.2464603,
              -8.5198587
            ],
            [
              116.2464422,
              -8.5196396
            ],
            [
              116.2465566,
              -8.5195449
            ],
            [
              116.2466118,
              -8.5193894
            ],
            [
              116.2466824,
              -8.5192345
            ],
            [
              116.2467931,
              -8.5189835
            ],
            [
              116.2468322,
              -8.5188704
            ],
            [
              116.2469571,
              -8.5186747
            ],
            [
              116.2469786,
              -8.5185672
            ],
            [
              116.2470692,
              -8.5184639
            ],
            [
              116.2471767,
              -8.5181995
            ],
            [
              116.2473057,
              -8.5180585
            ],
            [
              116.2474187,
              -8.5179427
            ],
            [
              116.2475516,
              -8.5178147
            ],
            [
              116.2476596,
              -8.5177881
            ],
            [
              116.2477157,
              -8.5176201
            ],
            [
              116.2476992,
              -8.5174832
            ],
            [
              116.2476302,
              -8.5173883
            ],
            [
              116.2475229,
              -8.5173188
            ],
            [
              116.2474536,
              -8.5172164
            ],
            [
              116.247392,
              -8.5171615
            ],
            [
              116.2473546,
              -8.5170342
            ],
            [
              116.2473783,
              -8.5169592
            ],
            [
              116.2474008,
              -8.5169057
            ],
            [
              116.2473954,
              -8.5168936
            ],
            [
              116.2473823,
              -8.5168938
            ],
            [
              116.2473787,
              -8.5168972
            ],
            [
              116.2473826,
              -8.5169137
            ],
            [
              116.2473813,
              -8.516914
            ],
            [
              116.2473811,
              -8.5169143
            ],
            [
              116.2473811,
              -8.5169146
            ],
            [
              116.2473809,
              -8.5169145
            ],
            [
              116.2473807,
              -8.5169145
            ],
            [
              116.2473805,
              -8.5169146
            ],
            [
              116.2473805,
              -8.5169148
            ],
            [
              116.2473805,
              -8.516915
            ],
            [
              116.2473839,
              -8.5169143
            ],
            [
              116.2473839,
              -8.5169155
            ],
            [
              116.2473875,
              -8.5169025
            ],
            [
              116.2473997,
              -8.5169027
            ],
            [
              116.2473977,
              -8.5169017
            ],
            [
              116.2473872,
              -8.5168826
            ],
            [
              116.2473404,
              -8.5168359
            ],
            [
              116.2473564,
              -8.5167882
            ],
            [
              116.2473153,
              -8.5167293
            ],
            [
              116.2472648,
              -8.5167007
            ],
            [
              116.2472075,
              -8.5166729
            ],
            [
              116.2471735,
              -8.5166695
            ],
            [
              116.2471238,
              -8.5166578
            ],
            [
              116.2470652,
              -8.5166572
            ],
            [
              116.2470156,
              -8.5166585
            ],
            [
              116.2469675,
              -8.5166693
            ],
            [
              116.2469229,
              -8.5166511
            ],
            [
              116.2468717,
              -8.5166341
            ],
            [
              116.2468154,
              -8.5166289
            ],
            [
              116.2467527,
              -8.5166439
            ],
            [
              116.2466871,
              -8.516653
            ],
            [
              116.2466228,
              -8.5166522
            ],
            [
              116.2465415,
              -8.5166513
            ],
            [
              116.2464728,
              -8.5166511
            ],
            [
              116.2464153,
              -8.5166451
            ],
            [
              116.2463602,
              -8.5166275
            ],
            [
              116.2463284,
              -8.5165607
            ],
            [
              116.2463097,
              -8.5165013
            ],
            [
              116.2463082,
              -8.5164293
            ],
            [
              116.2463134,
              -8.516359
            ],
            [
              116.2463197,
              -8.5162887
            ],
            [
              116.2462885,
              -8.5162176
            ],
            [
              116.2462963,
              -8.5161516
            ],
            [
              116.2463209,
              -8.5160953
            ],
            [
              116.2463238,
              -8.5160385
            ],
            [
              116.2463037,
              -8.5159779
            ],
            [
              116.2463018,
              -8.5159285
            ],
            [
              116.2463187,
              -8.5158766
            ],
            [
              116.2463318,
              -8.5158158
            ],
            [
              116.2463307,
              -8.5157523
            ],
            [
              116.2463426,
              -8.5157037
            ],
            [
              116.2463185,
              -8.515661
            ],
            [
              116.2462905,
              -8.51569
            ],
            [
              116.2462996,
              -8.5156845
            ],
            [
              116.2463029,
              -8.5156726
            ],
            [
              116.2463078,
              -8.5156366
            ],
            [
              116.246316,
              -8.5155828
            ],
            [
              116.2463508,
              -8.515476
            ],
            [
              116.2463611,
              -8.5153648
            ],
            [
              116.2463705,
              -8.5152878
            ],
            [
              116.2463877,
              -8.515178
            ],
            [
              116.2463558,
              -8.5150502
            ],
            [
              116.2463521,
              -8.5149737
            ],
            [
              116.2462709,
              -8.5147021
            ],
            [
              116.2462926,
              -8.5145829
            ],
            [
              116.2462612,
              -8.5145619
            ],
            [
              116.2462686,
              -8.5145611
            ],
            [
              116.2462726,
              -8.5145572
            ],
            [
              116.2462723,
              -8.5145563
            ],
            [
              116.2462812,
              -8.5145581
            ],
            [
              116.2464036,
              -8.5144385
            ],
            [
              116.24652,
              -8.5142414
            ],
            [
              116.246552,
              -8.5140404
            ],
            [
              116.2466205,
              -8.51395
            ],
            [
              116.2466405,
              -8.5139969
            ],
            [
              116.2466403,
              -8.5140034
            ],
            [
              116.2466486,
              -8.5138455
            ],
            [
              116.2467224,
              -8.5135689
            ],
            [
              116.2467709,
              -8.5134073
            ],
            [
              116.246829,
              -8.5133516
            ],
            [
              116.2468289,
              -8.5133494
            ],
            [
              116.2467185,
              -8.5132105
            ],
            [
              116.2466122,
              -8.5130034
            ],
            [
              116.2465969,
              -8.5127935
            ],
            [
              116.2465963,
              -8.5125646
            ],
            [
              116.2466131,
              -8.5124029
            ],
            [
              116.2465611,
              -8.512213
            ],
            [
              116.2466375,
              -8.5120161
            ],
            [
              116.2467467,
              -8.5118084
            ],
            [
              116.2468369,
              -8.5116993
            ],
            [
              116.2468816,
              -8.5115121
            ],
            [
              116.2468977,
              -8.5113485
            ],
            [
              116.2469171,
              -8.511163
            ],
            [
              116.2468779,
              -8.5109737
            ],
            [
              116.2469222,
              -8.5108389
            ],
            [
              116.2470073,
              -8.5107507
            ],
            [
              116.2469894,
              -8.5105956
            ],
            [
              116.2470257,
              -8.5104461
            ],
            [
              116.2470443,
              -8.5103949
            ],
            [
              116.24706,
              -8.5103856
            ],
            [
              116.2470625,
              -8.5103826
            ],
            [
              116.2470644,
              -8.5103219
            ],
            [
              116.2470387,
              -8.5102618
            ],
            [
              116.247021,
              -8.5102245
            ],
            [
              116.2470299,
              -8.5102174
            ],
            [
              116.2470305,
              -8.510212
            ],
            [
              116.2470237,
              -8.5102057
            ],
            [
              116.2470183,
              -8.5101979
            ],
            [
              116.2470403,
              -8.5100933
            ],
            [
              116.2469979,
              -8.5100072
            ],
            [
              116.2470009,
              -8.5099417
            ],
            [
              116.2469742,
              -8.509863
            ],
            [
              116.2469274,
              -8.5097996
            ],
            [
              116.2468764,
              -8.5097608
            ],
            [
              116.2468224,
              -8.509705
            ],
            [
              116.2467942,
              -8.5096113
            ],
            [
              116.2468108,
              -8.5095235
            ],
            [
              116.2468168,
              -8.5094695
            ],
            [
              116.2468372,
              -8.5094712
            ],
            [
              116.246858,
              -8.5094509
            ],
            [
              116.246896,
              -8.5094028
            ],
            [
              116.2469297,
              -8.5093672
            ],
            [
              116.2469311,
              -8.50934
            ],
            [
              116.2469139,
              -8.5093563
            ],
            [
              116.2469055,
              -8.5093574
            ],
            [
              116.2469007,
              -8.5093567
            ],
            [
              116.2468817,
              -8.5093646
            ],
            [
              116.2468813,
              -8.5093647
            ],
            [
              116.2468782,
              -8.5093657
            ],
            [
              116.2468786,
              -8.5093652
            ],
            [
              116.2468771,
              -8.509368
            ],
            [
              116.2468746,
              -8.5093629
            ],
            [
              116.2468716,
              -8.5093603
            ],
            [
              116.2468693,
              -8.5093615
            ],
            [
              116.2468691,
              -8.5093627
            ],
            [
              116.2468688,
              -8.5093631
            ],
            [
              116.2468692,
              -8.5093645
            ],
            [
              116.2468696,
              -8.5093656
            ],
            [
              116.2468698,
              -8.5093664
            ],
            [
              116.2468695,
              -8.5093669
            ],
            [
              116.2468691,
              -8.5093669
            ],
            [
              116.2468691,
              -8.5093674
            ],
            [
              116.2468691,
              -8.509368
            ],
            [
              116.2468691,
              -8.5093683
            ],
            [
              116.246868,
              -8.5093681
            ],
            [
              116.2468683,
              -8.5093681
            ],
            [
              116.2468685,
              -8.5093679
            ],
            [
              116.2468696,
              -8.5093678
            ],
            [
              116.2468733,
              -8.5093644
            ],
            [
              116.2468764,
              -8.5093606
            ],
            [
              116.2468758,
              -8.5093596
            ],
            [
              116.2468773,
              -8.5093579
            ],
            [
              116.2468788,
              -8.5093558
            ],
            [
              116.246882,
              -8.5093565
            ],
            [
              116.2468936,
              -8.509351
            ],
            [
              116.246897,
              -8.5093447
            ],
            [
              116.2468987,
              -8.5093306
            ],
            [
              116.2468993,
              -8.5093218
            ],
            [
              116.2468995,
              -8.5093184
            ],
            [
              116.2469009,
              -8.5093154
            ],
            [
              116.2469109,
              -8.5093173
            ],
            [
              116.2469161,
              -8.5093235
            ],
            [
              116.2469231,
              -8.5093302
            ],
            [
              116.2469253,
              -8.5093337
            ],
            [
              116.2469329,
              -8.5093375
            ],
            [
              116.246875,
              -8.509388
            ],
            [
              116.2468709,
              -8.5093696
            ],
            [
              116.2468957,
              -8.5093583
            ],
            [
              116.2469148,
              -8.5093553
            ],
            [
              116.2469196,
              -8.5093563
            ],
            [
              116.2469216,
              -8.5093563
            ],
            [
              116.2469207,
              -8.5093526
            ],
            [
              116.2468972,
              -8.50934
            ],
            [
              116.2468879,
              -8.5093196
            ],
            [
              116.2468957,
              -8.5093224
            ],
            [
              116.2469029,
              -8.5093227
            ],
            [
              116.2469069,
              -8.5093229
            ],
            [
              116.2469081,
              -8.509323
            ],
            [
              116.2469087,
              -8.5093202
            ],
            [
              116.2469109,
              -8.5093169
            ],
            [
              116.2469111,
              -8.5093164
            ],
            [
              116.2469119,
              -8.5093137
            ],
            [
              116.2469133,
              -8.5093139
            ],
            [
              116.246914,
              -8.5093141
            ],
            [
              116.2469149,
              -8.5093142
            ],
            [
              116.2469158,
              -8.5093124
            ],
            [
              116.2469154,
              -8.5093148
            ],
            [
              116.2469162,
              -8.5093168
            ],
            [
              116.2469168,
              -8.5093161
            ],
            [
              116.2469184,
              -8.5093162
            ],
            [
              116.2469187,
              -8.5093163
            ],
            [
              116.2469193,
              -8.5093167
            ],
            [
              116.2469161,
              -8.5093097
            ],
            [
              116.2469164,
              -8.5093074
            ],
            [
              116.2469153,
              -8.5093072
            ],
            [
              116.2469131,
              -8.5093093
            ],
            [
              116.2469126,
              -8.5093095
            ],
            [
              116.2469137,
              -8.5093098
            ],
            [
              116.2469146,
              -8.5093097
            ],
            [
              116.2469155,
              -8.5093097
            ],
            [
              116.2469107,
              -8.5093089
            ],
            [
              116.2469088,
              -8.5093094
            ],
            [
              116.2469101,
              -8.5093116
            ],
            [
              116.2469099,
              -8.5093165
            ],
            [
              116.2469094,
              -8.5093185
            ],
            [
              116.2469094,
              -8.5093192
            ],
            [
              116.2469095,
              -8.5093182
            ],
            [
              116.2469088,
              -8.5093186
            ],
            [
              116.2469081,
              -8.5093193
            ],
            [
              116.2469079,
              -8.5093195
            ],
            [
              116.2469083,
              -8.5093198
            ],
            [
              116.246909,
              -8.5093203
            ],
            [
              116.2469097,
              -8.5093205
            ],
            [
              116.24691,
              -8.5093208
            ],
            [
              116.2469101,
              -8.5093218
            ],
            [
              116.2469096,
              -8.5093226
            ],
            [
              116.2469098,
              -8.509322
            ],
            [
              116.2469084,
              -8.5093051
            ],
            [
              116.2469136,
              -8.5092677
            ],
            [
              116.2469147,
              -8.509263
            ],
            [
              116.2469157,
              -8.5092589
            ],
            [
              116.2469137,
              -8.5092557
            ],
            [
              116.2469136,
              -8.5092561
            ],
            [
              116.2469131,
              -8.5092552
            ],
            [
              116.2469138,
              -8.5092522
            ],
            [
              116.2469161,
              -8.5092541
            ],
            [
              116.2469161,
              -8.5092542
            ],
            [
              116.2469161,
              -8.5092541
            ],
            [
              116.2469167,
              -8.5092518
            ],
            [
              116.2469227,
              -8.5092461
            ],
            [
              116.2469217,
              -8.5092439
            ],
            [
              116.2469219,
              -8.5092463
            ],
            [
              116.2469247,
              -8.5092454
            ],
            [
              116.2469233,
              -8.5092318
            ],
            [
              116.246971,
              -8.5091322
            ],
            [
              116.2469694,
              -8.5090304
            ],
            [
              116.2469647,
              -8.5089166
            ],
            [
              116.2469914,
              -8.5087446
            ],
            [
              116.2469632,
              -8.5085884
            ],
            [
              116.246917,
              -8.5085016
            ],
            [
              116.2469453,
              -8.5083183
            ],
            [
              116.2469915,
              -8.5081876
            ],
            [
              116.247083,
              -8.5080077
            ],
            [
              116.247174,
              -8.5078451
            ],
            [
              116.2472332,
              -8.5077445
            ],
            [
              116.2473764,
              -8.5076306
            ],
            [
              116.2474291,
              -8.5075284
            ],
            [
              116.2475309,
              -8.5074371
            ],
            [
              116.2476038,
              -8.5073286
            ],
            [
              116.2477286,
              -8.5071321
            ],
            [
              116.247797,
              -8.506978
            ],
            [
              116.2478552,
              -8.5068947
            ],
            [
              116.2479146,
              -8.506868
            ],
            [
              116.2479138,
              -8.5068631
            ],
            [
              116.2479224,
              -8.5068602
            ],
            [
              116.2479702,
              -8.5067676
            ],
            [
              116.2480277,
              -8.5066491
            ],
            [
              116.2480752,
              -8.506499
            ],
            [
              116.2481086,
              -8.5063345
            ],
            [
              116.2481173,
              -8.5061544
            ],
            [
              116.2481237,
              -8.5060074
            ],
            [
              116.2481965,
              -8.5058471
            ],
            [
              116.2482085,
              -8.5057328
            ],
            [
              116.2482591,
              -8.5056191
            ],
            [
              116.2483787,
              -8.5055379
            ],
            [
              116.248471,
              -8.5054258
            ],
            [
              116.2484848,
              -8.5053381
            ],
            [
              116.2485516,
              -8.5052167
            ],
            [
              116.2486356,
              -8.5050803
            ],
            [
              116.2486453,
              -8.5050035
            ],
            [
              116.248663,
              -8.5049815
            ],
            [
              116.2486684,
              -8.5049767
            ],
            [
              116.2486691,
              -8.5049733
            ],
            [
              116.2486583,
              -8.5049489
            ],
            [
              116.2486078,
              -8.5048758
            ],
            [
              116.2485993,
              -8.504873
            ],
            [
              116.2486046,
              -8.5048546
            ],
            [
              116.2486065,
              -8.504849
            ],
            [
              116.248606,
              -8.5048484
            ],
            [
              116.2485999,
              -8.5047868
            ],
            [
              116.2485714,
              -8.504693
            ],
            [
              116.2485583,
              -8.5045752
            ],
            [
              116.248623,
              -8.5045098
            ],
            [
              116.2486624,
              -8.5044254
            ],
            [
              116.2486717,
              -8.5044145
            ],
            [
              116.248669,
              -8.5044137
            ],
            [
              116.2486762,
              -8.5043832
            ],
            [
              116.2486915,
              -8.5042058
            ],
            [
              116.248704,
              -8.5040833
            ],
            [
              116.248712,
              -8.5039917
            ],
            [
              116.2487633,
              -8.5038439
            ],
            [
              116.2488121,
              -8.503673
            ],
            [
              116.2488276,
              -8.5036025
            ],
            [
              116.2488423,
              -8.5035805
            ],
            [
              116.2488409,
              -8.503578
            ],
            [
              116.248843,
              -8.503576
            ],
            [
              116.2488421,
              -8.5035758
            ],
            [
              116.2488433,
              -8.5035746
            ],
            [
              116.2488358,
              -8.5035652
            ],
            [
              116.2488404,
              -8.5035613
            ],
            [
              116.248845,
              -8.5035585
            ],
            [
              116.2488463,
              -8.5035552
            ],
            [
              116.2488464,
              -8.5035545
            ],
            [
              116.2488531,
              -8.5035411
            ],
            [
              116.2488558,
              -8.503511
            ],
            [
              116.2488566,
              -8.5035097
            ],
            [
              116.248858,
              -8.5035129
            ],
            [
              116.2488582,
              -8.503513
            ],
            [
              116.2488718,
              -8.5035046
            ],
            [
              116.2488816,
              -8.5034857
            ],
            [
              116.2488814,
              -8.5034812
            ],
            [
              116.2488865,
              -8.5034814
            ],
            [
              116.2488825,
              -8.5034556
            ],
            [
              116.2488897,
              -8.5034423
            ],
            [
              116.248917,
              -8.5032683
            ],
            [
              116.2489649,
              -8.5031686
            ],
            [
              116.2489747,
              -8.5030438
            ],
            [
              116.2490315,
              -8.502893
            ],
            [
              116.2490782,
              -8.5027996
            ],
            [
              116.249115,
              -8.5027553
            ],
            [
              116.2491248,
              -8.5027261
            ],
            [
              116.2491083,
              -8.5027264
            ],
            [
              116.2491061,
              -8.5027279
            ],
            [
              116.2491063,
              -8.5027269
            ],
            [
              116.2491268,
              -8.5026204
            ],
            [
              116.2491588,
              -8.502483
            ],
            [
              116.2491683,
              -8.5023371
            ],
            [
              116.2491388,
              -8.5022533
            ],
            [
              116.2490931,
              -8.5021686
            ],
            [
              116.2490969,
              -8.5020741
            ],
            [
              116.2491306,
              -8.5019682
            ],
            [
              116.2491783,
              -8.5018728
            ],
            [
              116.2492052,
              -8.5017653
            ],
            [
              116.2492331,
              -8.501705
            ],
            [
              116.2492466,
              -8.5015523
            ],
            [
              116.2492254,
              -8.5014307
            ],
            [
              116.2491813,
              -8.5012994
            ],
            [
              116.2491148,
              -8.5011742
            ],
            [
              116.2490589,
              -8.5010184
            ],
            [
              116.2489887,
              -8.5009266
            ],
            [
              116.2489584,
              -8.5007916
            ],
            [
              116.2489451,
              -8.5006842
            ],
            [
              116.2489365,
              -8.500557
            ],
            [
              116.2489695,
              -8.5005026
            ],
            [
              116.2489927,
              -8.5003968
            ],
            [
              116.2489233,
              -8.5002967
            ],
            [
              116.2488739,
              -8.500229
            ],
            [
              116.2488193,
              -8.5001711
            ],
            [
              116.2487461,
              -8.5001736
            ],
            [
              116.248698,
              -8.5001086
            ],
            [
              116.2486676,
              -8.5000558
            ],
            [
              116.2486776,
              -8.4999668
            ],
            [
              116.2486462,
              -8.4998666
            ],
            [
              116.2485847,
              -8.4997566
            ],
            [
              116.2485493,
              -8.4996737
            ],
            [
              116.2484897,
              -8.4995896
            ],
            [
              116.2484545,
              -8.499467
            ],
            [
              116.2484974,
              -8.4993877
            ],
            [
              116.2485476,
              -8.4993108
            ],
            [
              116.2485387,
              -8.499225
            ],
            [
              116.2484815,
              -8.4991276
            ],
            [
              116.248409,
              -8.4990257
            ],
            [
              116.2483961,
              -8.4989125
            ],
            [
              116.2483793,
              -8.4987932
            ],
            [
              116.2484112,
              -8.4986951
            ],
            [
              116.2483984,
              -8.4986404
            ],
            [
              116.24841,
              -8.4985204
            ],
            [
              116.2484511,
              -8.4984133
            ],
            [
              116.2483937,
              -8.4983355
            ],
            [
              116.2483,
              -8.4982565
            ],
            [
              116.2482647,
              -8.4981688
            ],
            [
              116.2482288,
              -8.4981424
            ],
            [
              116.2481818,
              -8.4980915
            ],
            [
              116.2481385,
              -8.4980496
            ],
            [
              116.2481265,
              -8.4980301
            ],
            [
              116.2481264,
              -8.4980299
            ],
            [
              116.2481199,
              -8.4980246
            ],
            [
              116.2481198,
              -8.4980246
            ],
            [
              116.2481196,
              -8.4980246
            ],
            [
              116.2481163,
              -8.498022
            ],
            [
              116.2480955,
              -8.4980181
            ],
            [
              116.2480631,
              -8.4979954
            ],
            [
              116.2479849,
              -8.4979577
            ],
            [
              116.2479019,
              -8.4979276
            ],
            [
              116.2478144,
              -8.4978308
            ],
            [
              116.2478183,
              -8.4976987
            ],
            [
              116.247779,
              -8.4975839
            ],
            [
              116.2477295,
              -8.4974757
            ],
            [
              116.2476691,
              -8.4974049
            ],
            [
              116.2476034,
              -8.4973481
            ],
            [
              116.2475482,
              -8.4972425
            ],
            [
              116.2475064,
              -8.4971471
            ],
            [
              116.2474423,
              -8.4970144
            ],
            [
              116.2474528,
              -8.4968727
            ],
            [
              116.2474166,
              -8.4967556
            ],
            [
              116.2473061,
              -8.496696
            ],
            [
              116.2472204,
              -8.4966095
            ],
            [
              116.2471624,
              -8.4964923
            ],
            [
              116.2471236,
              -8.4963759
            ],
            [
              116.2471658,
              -8.4962248
            ],
            [
              116.2471761,
              -8.4960979
            ],
            [
              116.2471948,
              -8.4959864
            ],
            [
              116.2472883,
              -8.4958458
            ],
            [
              116.2473234,
              -8.495749
            ],
            [
              116.2472442,
              -8.4956514
            ],
            [
              116.2472445,
              -8.4955175
            ],
            [
              116.2472508,
              -8.4953918
            ],
            [
              116.2472105,
              -8.4952737
            ],
            [
              116.2472308,
              -8.4951508
            ],
            [
              116.2472056,
              -8.495059
            ],
            [
              116.24717,
              -8.4949555
            ],
            [
              116.2471758,
              -8.4948015
            ],
            [
              116.2471688,
              -8.4946289
            ],
            [
              116.2471703,
              -8.4945543
            ],
            [
              116.2471844,
              -8.494528
            ],
            [
              116.2471871,
              -8.494518
            ],
            [
              116.2471888,
              -8.4945104
            ],
            [
              116.2471918,
              -8.4944955
            ],
            [
              116.2471919,
              -8.4944949
            ],
            [
              116.247192,
              -8.4944946
            ],
            [
              116.247193,
              -8.4944721
            ],
            [
              116.2471767,
              -8.4944228
            ],
            [
              116.2471616,
              -8.4943659
            ],
            [
              116.2471595,
              -8.4943206
            ],
            [
              116.247183,
              -8.4942614
            ],
            [
              116.2471799,
              -8.4942484
            ],
            [
              116.2471793,
              -8.4942718
            ],
            [
              116.2471787,
              -8.4942744
            ],
            [
              116.247172,
              -8.494179
            ],
            [
              116.2472025,
              -8.4941661
            ],
            [
              116.2472058,
              -8.4941641
            ],
            [
              116.2472007,
              -8.4941843
            ],
            [
              116.2471998,
              -8.4941845
            ],
            [
              116.2471993,
              -8.4941848
            ],
            [
              116.2471991,
              -8.4941848
            ],
            [
              116.2471975,
              -8.4941851
            ],
            [
              116.2472085,
              -8.4941807
            ],
            [
              116.247211,
              -8.4941805
            ],
            [
              116.2472111,
              -8.4941805
            ],
            [
              116.2472031,
              -8.4941816
            ],
            [
              116.2471593,
              -8.4942097
            ],
            [
              116.2471424,
              -8.4942277
            ],
            [
              116.2471425,
              -8.494228
            ],
            [
              116.2471424,
              -8.4942285
            ],
            [
              116.2471434,
              -8.4942291
            ],
            [
              116.2471513,
              -8.494239
            ],
            [
              116.2471517,
              -8.4942396
            ],
            [
              116.2471537,
              -8.4942403
            ],
            [
              116.2471572,
              -8.494243
            ],
            [
              116.2471488,
              -8.494247
            ],
            [
              116.2471703,
              -8.4942673
            ],
            [
              116.2471589,
              -8.4942259
            ],
            [
              116.2471245,
              -8.4941684
            ],
            [
              116.2470645,
              -8.4941481
            ],
            [
              116.2470069,
              -8.4941355
            ],
            [
              116.2469412,
              -8.4941132
            ],
            [
              116.2468995,
              -8.4941062
            ],
            [
              116.2468487,
              -8.4941217
            ],
            [
              116.24678,
              -8.4941318
            ],
            [
              116.2467422,
              -8.4941306
            ],
            [
              116.2466969,
              -8.4941228
            ],
            [
              116.2466428,
              -8.4941222
            ],
            [
              116.246624,
              -8.4941475
            ],
            [
              116.2465859,
              -8.4941545
            ],
            [
              116.2465331,
              -8.4941893
            ],
            [
              116.2465086,
              -8.4942336
            ],
            [
              116.2464885,
              -8.4942764
            ],
            [
              116.2464803,
              -8.4943268
            ],
            [
              116.246471,
              -8.4943768
            ],
            [
              116.2464394,
              -8.4944201
            ],
            [
              116.2464184,
              -8.4944349
            ],
            [
              116.2464016,
              -8.4944762
            ],
            [
              116.2463721,
              -8.494518
            ],
            [
              116.2463173,
              -8.49454
            ],
            [
              116.2462746,
              -8.4945699
            ],
            [
              116.2462447,
              -8.4946011
            ],
            [
              116.2462411,
              -8.4946421
            ],
            [
              116.2462258,
              -8.4946986
            ],
            [
              116.2461483,
              -8.4947053
            ],
            [
              116.2460954,
              -8.4947322
            ],
            [
              116.2460309,
              -8.4947397
            ],
            [
              116.2459612,
              -8.4947257
            ],
            [
              116.2459054,
              -8.4947045
            ],
            [
              116.2458433,
              -8.4946916
            ],
            [
              116.2457897,
              -8.4946517
            ],
            [
              116.2457449,
              -8.4946123
            ],
            [
              116.2457006,
              -8.4945842
            ],
            [
              116.245668,
              -8.4945713
            ],
            [
              116.2456392,
              -8.4945668
            ],
            [
              116.2456067,
              -8.4945667
            ],
            [
              116.2455422,
              -8.4945018
            ],
            [
              116.2455318,
              -8.4944467
            ],
            [
              116.2455519,
              -8.494408
            ],
            [
              116.2455453,
              -8.494361
            ],
            [
              116.245503,
              -8.4943255
            ],
            [
              116.2454461,
              -8.4943404
            ],
            [
              116.2453828,
              -8.4943743
            ],
            [
              116.2453214,
              -8.4943958
            ],
            [
              116.2452695,
              -8.4943808
            ],
            [
              116.2452254,
              -8.494386
            ],
            [
              116.2452195,
              -8.4943935
            ],
            [
              116.2451813,
              -8.4944026
            ],
            [
              116.2451348,
              -8.4943861
            ],
            [
              116.245084,
              -8.4943976
            ],
            [
              116.2450245,
              -8.4944125
            ],
            [
              116.2449746,
              -8.4944219
            ],
            [
              116.2449406,
              -8.4944333
            ],
            [
              116.2448976,
              -8.494421
            ],
            [
              116.2448658,
              -8.4944223
            ],
            [
              116.2448361,
              -8.4944041
            ],
            [
              116.2448278,
              -8.4944079
            ],
            [
              116.2448308,
              -8.4944051
            ],
            [
              116.2448259,
              -8.4943907
            ],
            [
              116.2448149,
              -8.4943752
            ],
            [
              116.2448072,
              -8.4943823
            ],
            [
              116.2447606,
              -8.4944185
            ],
            [
              116.2447956,
              -8.4944471
            ],
            [
              116.2447693,
              -8.4944545
            ],
            [
              116.2447472,
              -8.4944851
            ],
            [
              116.244758,
              -8.4944758
            ],
            [
              116.2447533,
              -8.4944925
            ],
            [
              116.244731,
              -8.4944968
            ],
            [
              116.2446988,
              -8.4944569
            ],
            [
              116.2446936,
              -8.4944301
            ],
            [
              116.2447032,
              -8.4943987
            ],
            [
              116.2447152,
              -8.4943636
            ],
            [
              116.2447237,
              -8.4944012
            ],
            [
              116.2447158,
              -8.4944104
            ],
            [
              116.2447159,
              -8.4944134
            ],
            [
              116.2447164,
              -8.494414
            ],
            [
              116.2447178,
              -8.4944203
            ],
            [
              116.2446988,
              -8.4944236
            ],
            [
              116.2446924,
              -8.4943828
            ],
            [
              116.2446754,
              -8.4943641
            ],
            [
              116.2446858,
              -8.4944013
            ],
            [
              116.2446273,
              -8.4944563
            ],
            [
              116.2446143,
              -8.4944852
            ],
            [
              116.2446182,
              -8.4944686
            ],
            [
              116.2446253,
              -8.4944328
            ],
            [
              116.2446533,
              -8.4944742
            ],
            [
              116.2446471,
              -8.4944761
            ],
            [
              116.2446448,
              -8.4944979
            ],
            [
              116.2446025,
              -8.4944764
            ],
            [
              116.2445972,
              -8.4944754
            ],
            [
              116.2446195,
              -8.4944608
            ],
            [
              116.244606,
              -8.4944311
            ],
            [
              116.244597,
              -8.4944032
            ],
            [
              116.2445696,
              -8.4944644
            ],
            [
              116.2445781,
              -8.4944625
            ],
            [
              116.244591,
              -8.4944337
            ],
            [
              116.2445856,
              -8.4944516
            ],
            [
              116.2445368,
              -8.4944728
            ],
            [
              116.2445449,
              -8.4944545
            ],
            [
              116.2445739,
              -8.4944447
            ],
            [
              116.2446059,
              -8.4944308
            ],
            [
              116.2446199,
              -8.4944097
            ],
            [
              116.244594,
              -8.4944453
            ],
            [
              116.244598,
              -8.4944437
            ],
            [
              116.2445973,
              -8.4944348
            ],
            [
              116.2445941,
              -8.4944366
            ],
            [
              116.2445934,
              -8.4944387
            ],
            [
              116.2445818,
              -8.4944367
            ],
            [
              116.2445779,
              -8.4944348
            ],
            [
              116.244586,
              -8.4944335
            ],
            [
              116.2445864,
              -8.4944348
            ],
            [
              116.244592,
              -8.4944372
            ],
            [
              116.2445912,
              -8.4944411
            ],
            [
              116.2445637,
              -8.494445
            ],
            [
              116.2445281,
              -8.4944361
            ],
            [
              116.2445075,
              -8.4944327
            ],
            [
              116.2444878,
              -8.4944393
            ],
            [
              116.244458,
              -8.4944431
            ],
            [
              116.2444591,
              -8.494427
            ],
            [
              116.2444686,
              -8.4944224
            ],
            [
              116.2444729,
              -8.4944146
            ],
            [
              116.244475,
              -8.4944117
            ],
            [
              116.2444803,
              -8.4944085
            ],
            [
              116.2444824,
              -8.4944152
            ],
            [
              116.2444746,
              -8.4944216
            ],
            [
              116.2444656,
              -8.494408
            ],
            [
              116.2444546,
              -8.4943823
            ],
            [
              116.2444504,
              -8.4943712
            ],
            [
              116.2444446,
              -8.4943455
            ],
            [
              116.2444195,
              -8.4943071
            ],
            [
              116.24442,
              -8.4942652
            ],
            [
              116.2443941,
              -8.4942609
            ],
            [
              116.2443672,
              -8.4942892
            ],
            [
              116.2443513,
              -8.4942926
            ],
            [
              116.2443919,
              -8.494304
            ],
            [
              116.2444206,
              -8.4942588
            ],
            [
              116.2444733,
              -8.4941908
            ],
            [
              116.2444765,
              -8.494146
            ],
            [
              116.2444762,
              -8.4941493
            ],
            [
              116.2444783,
              -8.4941498
            ],
            [
              116.2444595,
              -8.4941366
            ],
            [
              116.2444358,
              -8.494135
            ],
            [
              116.2444354,
              -8.4941341
            ],
            [
              116.2444342,
              -8.4941327
            ],
            [
              116.2444304,
              -8.4941361
            ],
            [
              116.2444291,
              -8.4941381
            ],
            [
              116.2444273,
              -8.4941383
            ],
            [
              116.2444078,
              -8.4941371
            ],
            [
              116.2444148,
              -8.4940993
            ],
            [
              116.2444023,
              -8.4941041
            ],
            [
              116.2444004,
              -8.4940921
            ],
            [
              116.2443346,
              -8.4941106
            ],
            [
              116.2443128,
              -8.4940731
            ],
            [
              116.2443128,
              -8.4940656
            ],
            [
              116.2443134,
              -8.4940669
            ],
            [
              116.2442964,
              -8.4940655
            ],
            [
              116.2443021,
              -8.4940581
            ],
            [
              116.2442862,
              -8.4940673
            ],
            [
              116.2442831,
              -8.4940693
            ],
            [
              116.2442757,
              -8.4940714
            ],
            [
              116.2442611,
              -8.4940782
            ],
            [
              116.2442636,
              -8.494082
            ],
            [
              116.2442656,
              -8.4941106
            ],
            [
              116.2442823,
              -8.4940971
            ],
            [
              116.2442828,
              -8.4940974
            ],
            [
              116.2442795,
              -8.4940977
            ],
            [
              116.2442825,
              -8.4940946
            ],
            [
              116.2442859,
              -8.4940984
            ],
            [
              116.244286,
              -8.4940994
            ],
            [
              116.2442994,
              -8.4940807
            ],
            [
              116.244311,
              -8.4940496
            ],
            [
              116.2443108,
              -8.4940383
            ],
            [
              116.2443103,
              -8.4940383
            ],
            [
              116.24432,
              -8.4940394
            ],
            [
              116.2443211,
              -8.4940365
            ],
            [
              116.2443213,
              -8.4940366
            ],
            [
              116.2443228,
              -8.4940402
            ],
            [
              116.2443242,
              -8.4940412
            ],
            [
              116.2443251,
              -8.4940427
            ],
            [
              116.2443247,
              -8.4940418
            ],
            [
              116.2443242,
              -8.4940414
            ],
            [
              116.244324,
              -8.4940412
            ],
            [
              116.244324,
              -8.494041
            ],
            [
              116.2443243,
              -8.4940409
            ],
            [
              116.2443246,
              -8.4940409
            ],
            [
              116.2443261,
              -8.49404
            ],
            [
              116.2443271,
              -8.4940389
            ],
            [
              116.2443273,
              -8.4940386
            ],
            [
              116.2443275,
              -8.4940384
            ],
            [
              116.2443276,
              -8.4940382
            ],
            [
              116.2443277,
              -8.4940383
            ],
            [
              116.2443277,
              -8.4940383
            ],
            [
              116.2443413,
              -8.49403
            ],
            [
              116.2443349,
              -8.4940222
            ],
            [
              116.2443312,
              -8.494019
            ],
            [
              116.2443311,
              -8.4940189
            ],
            [
              116.244331,
              -8.4940192
            ],
            [
              116.2443311,
              -8.4940194
            ],
            [
              116.244331,
              -8.4940195
            ],
            [
              116.2443311,
              -8.4940196
            ],
            [
              116.2443311,
              -8.4940197
            ],
            [
              116.244327,
              -8.4940211
            ],
            [
              116.2443267,
              -8.4940212
            ],
            [
              116.2443266,
              -8.4940214
            ],
            [
              116.2443379,
              -8.4939876
            ],
            [
              116.2443752,
              -8.4939916
            ],
            [
              116.2443704,
              -8.4939942
            ],
            [
              116.2444003,
              -8.4939966
            ],
            [
              116.244432,
              -8.4939643
            ],
            [
              116.2444275,
              -8.4939514
            ],
            [
              116.244431,
              -8.493939
            ],
            [
              116.2444494,
              -8.4939335
            ],
            [
              116.2444529,
              -8.4939346
            ],
            [
              116.2444548,
              -8.4939353
            ],
            [
              116.2444582,
              -8.4939345
            ],
            [
              116.2444596,
              -8.4939341
            ],
            [
              116.2444592,
              -8.4939337
            ],
            [
              116.2444614,
              -8.4939423
            ],
            [
              116.2444629,
              -8.4939392
            ],
            [
              116.2444552,
              -8.4939425
            ],
            [
              116.2444538,
              -8.4939417
            ],
            [
              116.2444518,
              -8.4939393
            ],
            [
              116.2444459,
              -8.4939418
            ],
            [
              116.2444462,
              -8.4939437
            ],
            [
              116.2444461,
              -8.4939482
            ],
            [
              116.2444434,
              -8.4939532
            ],
            [
              116.2444383,
              -8.4939606
            ],
            [
              116.2444335,
              -8.493965
            ],
            [
              116.2444317,
              -8.493975
            ],
            [
              116.2444295,
              -8.4939797
            ],
            [
              116.2444261,
              -8.4939842
            ],
            [
              116.2444229,
              -8.4939886
            ],
            [
              116.2444197,
              -8.493993
            ]
          ]
        ]
      }
    }
  ]
}