{
  "type": "FeatureCollection",
  "features": [
    {
      "type": "Feature",
      "properties": {
        "nama": "Jalur Menuju Pancor Lima",
        "deskripsi": "Rute menuju Pancor Lima di Dusun Temas Lestari (naik motor lalu jalan kaki). Hasil rekaman GPS lapangan.",
        "jenis": "jalur_tracking"
      },
      "geometry": {
        "type": "MultiLineString",
        "coordinates": [
          [
            [
              116.2420873,
              -8.5524478
            ],
            [
              116.2420873,
              -8.5524478
            ],
            [
              116.242092,
              -8.5524514
            ],
            [
              116.2421545,
              -8.5524467
            ],
            [
              116.2423902,
              -8.5523869
            ],
            [
              116.2428236,
              -8.5523481
            ],
            [
              116.2432696,
              -8.5522397
            ],
            [
              116.2436544,
              -8.5520687
            ],
            [
              116.2439668,
              -8.5517456
            ],
            [
              116.2443468,
              -8.5515954
            ],
            [
              116.2448054,
              -8.5514182
            ],
            [
              116.2452368,
              -8.5511664
            ],
            [
              116.2455419,
              -8.5508182
            ],
            [
              116.2459265,
              -8.5505715
            ],
            [
              116.2464003,
              -8.5503314
            ],
            [
              116.2469043,
              -8.550092
            ],
            [
              116.2472762,
              -8.5501514
            ],
            [
              116.2473981,
              -8.5502109
            ],
            [
              116.247624,
              -8.5502141
            ],
            [
              116.2477683,
              -8.5501651
            ],
            [
              116.2479104,
              -8.5501492
            ],
            [
              116.2480855,
              -8.550215
            ],
            [
              116.2483376,
              -8.5503506
            ],
            [
              116.2486349,
              -8.5503983
            ],
            [
              116.2488843,
              -8.5503256
            ],
            [
              116.2491241,
              -8.5502476
            ],
            [
              116.2493887,
              -8.5501593
            ],
            [
              116.2496876,
              -8.5499985
            ],
            [
              116.2499368,
              -8.549868
            ],
            [
              116.2501652,
              -8.5497846
            ],
            [
              116.250387,
              -8.5497297
            ],
            [
              116.2507016,
              -8.5497282
            ],
            [
              116.2509587,
              -8.5497192
            ],
            [
              116.2512325,
              -8.54971
            ],
            [
              116.2514415,
              -8.5496805
            ],
            [
              116.2516925,
              -8.5496203
            ],
            [
              116.2518969,
              -8.5495433
            ],
            [
              116.2521112,
              -8.5494226
            ],
            [
              116.2523178,
              -8.5493057
            ],
            [
              116.252351,
              -8.5491606
            ],
            [
              116.252245,
              -8.5489552
            ],
            [
              116.2522766,
              -8.548754
            ],
            [
              116.2524687,
              -8.5486654
            ],
            [
              116.2527204,
              -8.5485658
            ],
            [
              116.2529519,
              -8.5484324
            ],
            [
              116.253219,
              -8.5482763
            ],
            [
              116.2534853,
              -8.5481448
            ],
            [
              116.2537376,
              -8.5480317
            ],
            [
              116.2539794,
              -8.5479369
            ],
            [
              116.2540316,
              -8.5478368
            ],
            [
              116.2539798,
              -8.5476485
            ],
            [
              116.2539466,
              -8.5474648
            ],
            [
              116.2539489,
              -8.5472992
            ],
            [
              116.2539312,
              -8.5470892
            ],
            [
              116.2538943,
              -8.5469731
            ],
            [
              116.2538615,
              -8.5467697
            ],
            [
              116.2538376,
              -8.5465878
            ],
            [
              116.2538744,
              -8.5464269
            ],
            [
              116.2538915,
              -8.5462981
            ],
            [
              116.2538974,
              -8.5461579
            ],
            [
              116.2538881,
              -8.546134
            ],
            [
              116.2538658,
              -8.5460702
            ],
            [
              116.2538591,
              -8.5460602
            ],
            [
              116.2538444,
              -8.5460267
            ],
            [
              116.2538636,
              -8.5460505
            ],
            [
              116.2538897,
              -8.5460706
            ],
            [
              116.2539256,
              -8.5460119
            ],
            [
              116.2539101,
              -8.5459476
            ],
            [
              116.2538735,
              -8.5459122
            ],
            [
              116.2538517,
              -8.5458777
            ],
            [
              116.253866,
              -8.5458274
            ],
            [
              116.2538708,
              -8.5457616
            ],
            [
              116.2538458,
              -8.5457045
            ],
            [
              116.2538619,
              -8.5456838
            ],
            [
              116.2538705,
              -8.5456295
            ],
            [
              116.2538839,
              -8.5455966
            ],
            [
              116.2538713,
              -8.5455623
            ],
            [
              116.2538526,
              -8.5455122
            ],
            [
              116.253845,
              -8.5454545
            ],
            [
              116.2538383,
              -8.5454044
            ],
            [
              116.2538287,
              -8.5453507
            ],
            [
              116.2538291,
              -8.5452919
            ],
            [
              116.2538197,
              -8.5452433
            ],
            [
              116.2538188,
              -8.5451816
            ],
            [
              116.2538078,
              -8.5451245
            ],
            [
              116.2537965,
              -8.5450602
            ],
            [
              116.2537938,
              -8.5450139
            ],
            [
              116.2538311,
              -8.5449859
            ],
            [
              116.2538822,
              -8.5449924
            ],
            [
              116.2539364,
              -8.5450184
            ],
            [
              116.2539888,
              -8.545053
            ],
            [
              116.2540475,
              -8.5450639
            ],
            [
              116.2541138,
              -8.5450712
            ],
            [
              116.2541707,
              -8.545043
            ],
            [
              116.2542019,
              -8.5449997
            ],
            [
              116.2542326,
              -8.5449583
            ],
            [
              116.254278,
              -8.5449437
            ],
            [
              116.2543262,
              -8.544934
            ],
            [
              116.2543813,
              -8.5449224
            ],
            [
              116.2544316,
              -8.54493
            ],
            [
              116.2545,
              -8.544925
            ],
            [
              116.2545557,
              -8.5449263
            ],
            [
              116.2546154,
              -8.5449405
            ],
            [
              116.2546785,
              -8.5449331
            ],
            [
              116.2546955,
              -8.5449196
            ]
          ]
        ]
      }
    }
  ]
}