{
  "type": "FeatureCollection",
  "features": [
    {
      "type": "Feature",
      "properties": {
        "nama": "Jalan Setapak Sate Bulayak Mak Aton",
        "deskripsi": "Jalur jalan kaki di kawasan Sate Bulayak Mak Aton, dari area parkir menuju gazebo tepi sungai. Hasil rekaman GPS lapangan.",
        "jenis": "jalan_setapak"
      },
      "geometry": {
        "type": "MultiLineString",
        "coordinates": [
          [
            [
              116.2472346,
              -8.5391441
            ],
            [
              116.2472438,
              -8.5391451
            ],
            [
              116.2472526,
              -8.539153
            ],
            [
              116.2472746,
              -8.5391733
            ],
            [
              116.2473117,
              -8.5392381
            ],
            [
              116.2473463,
              -8.5393007
            ],
            [
              116.2473657,
              -8.539319
            ],
            [
              116.2473685,
              -8.5393476
            ],
            [
              116.2473607,
              -8.5393814
            ],
            [
              116.2473651,
              -8.5394176
            ],
            [
              116.2473628,
              -8.539439
            ]
          ],
          [
            [
              116.2473593,
              -8.5401644
            ],
            [
              116.2473258,
              -8.540144
            ],
            [
              116.2472107,
              -8.5402431
            ],
            [
              116.2470733,
              -8.540373
            ],
            [
              116.2468916,
              -8.5405415
            ],
            [
              116.2467677,
              -8.5406401
            ]
          ]
        ]
      }
    }
  ]
}