{
  "type": "FeatureCollection",
  "features": [
    {
      "type": "Feature",
      "properties": {
        "nama": "Jalur Menuju Bawak Goak Rivercamp (Pintu Tiket)",
        "deskripsi": "Jalan kaki dari sekitar Kantor Desa menuju pintu tiket kawasan Bawak Goak Rivercamp / Taman Miring / Bukit Khesari. Hasil rekaman GPS lapangan.",
        "jenis": "jalan_setapak"
      },
      "geometry": {
        "type": "MultiLineString",
        "coordinates": [
          [
            [
              116.2443043,
              -8.5413467
            ],
            [
              116.2442916,
              -8.54134
            ],
            [
              116.2442204,
              -8.5413319
            ],
            [
              116.2441612,
              -8.5413153
            ],
            [
              116.2440987,
              -8.541322
            ],
            [
              116.2440272,
              -8.5413595
            ],
            [
              116.2439899,
              -8.5414114
            ],
            [
              116.2439666,
              -8.5414619
            ],
            [
              116.2439332,
              -8.5415069
            ],
            [
              116.2439198,
              -8.5415518
            ],
            [
              116.2438683,
              -8.5415699
            ],
            [
              116.2438239,
              -8.541607
            ],
            [
              116.2437874,
              -8.5416536
            ],
            [
              116.2437698,
              -8.5417134
            ],
            [
              116.2437742,
              -8.5417702
            ],
            [
              116.2437578,
              -8.5418168
            ],
            [
              116.2437391,
              -8.5418628
            ],
            [
              116.2437414,
              -8.5418588
            ]
          ]
        ]
      }
    },
    {
      "type": "Feature",
      "properties": {
        "nama": "Jalur Menuju Purekmas (Pintu Tiket)",
        "deskripsi": "Jalan menuju pintu tiket kawasan Purekmas. Hasil rekaman GPS lapangan.",
        "jenis": "jalan_setapak"
      },
      "geometry": {
        "type": "MultiLineString",
        "coordinates": [
          [
            [
              116.2452924,
              -8.5400675
            ],
            [
              116.2453664,
              -8.5399308
            ],
            [
              116.2452103,
              -8.5397002
            ],
            [
              116.2450912,
              -8.5396063
            ],
            [
              116.2450417,
              -8.5395485
            ],
            [
              116.2449009,
              -8.5394734
            ],
            [
              116.244806,
              -8.5394276
            ],
            [
              116.2446962,
              -8.5393164
            ],
            [
              116.2445254,
              -8.5393227
            ],
            [
              116.244385,
              -8.5393364
            ],
            [
              116.244241,
              -8.5392854
            ],
            [
              116.244137,
              -8.5392256
            ],
            [
              116.2441032,
              -8.5391315
            ],
            [
              116.2442351,
              -8.5392335
            ],
            [
              116.244462,
              -8.5392695
            ],
            [
              116.2446612,
              -8.539244
            ]
          ]
        ]
      }
    }
  ]
}